# Made by eph2tle, compiled Mar 12 2023 20:28:02
# Run at Sun Mar 19 10:18:41 2023
#
#    The following TLEs (Two-Line Elements) were generated by fitting
# a numerically-integrated ephemeris,  based on the orbit given below,
# to the SDP4/SGP4 models.  Each TLE is good for the interval between
# its epoch and the epoch of the subsequent TLE (usually one day).
# The maximum deviation between the numerically integrated ephemerides
# and the TLE-based ephemeris, in kilometers,  is given for each TLE
# as the "worst residual".
#
#    This fitting is done using the 'eph2tle' code packaged with Find_Orb.
# The code has details on how the TLEs were computed :
#
#    https://github.com/Bill-Gray/find_orb/eph2tle.cpp
#
#    Be warned:  the error given is that between the numerically
# integrated ephems and the TLE model.  There will usually be at
# least some additional difference between the ephems and the actual
# motion of the satellite,  especially if the ephemerides are based
# on a short arc.  If the following orbital elements say something
# like "[based on] 10 observations 2015 Jan. 1-13",  and the TLEs
# are for 2015 May,  the extrapolation may be tenuous at best.  If
# your application requires a specific level of accuracy,  you may
# want to contact me;  I can give you some idea as to the fit of the
# underlying data (and possibly TLEs based on newer data).
#
#   You can usually find the underlying observational data,  and the
# fitted orbit,  residuals,  ephemerides,  and sometimes some comments
# about the object,  among the pages listed at
#
#    https://www.projectpluto.com/pluto/mpecs/pseudo.htm
#
#    Also,  if you use a TLE outside the "correct" time range (between
# its MJD and that of the next TLE),  all bets are off.  I've carefully
# computed and minimized the worst error over the "correct" time frame,
# but the ephemeris may (or may not) diverge wildly outside of it.
#
# Ephem range: 59884.000000 60157.000000 1.000000
# Created Sun Mar 19 10:18:34 2023
# Ephemeris start:  1 Nov 2022  0:00:00
# Ephemeris end:    1 Aug 2023  0:00:00
# Times are all TDT
# Positions/velocities are in equatorial J2000
# Orbital elements:  A10TKof = A10SMu1
#    Perigee 2023 Mar 18.561482 +/- 0.000224 TT = 13:28:32.0 (JD 2460022.061482)
# Epoch 2023 Mar 19.0 TT; AMR 38.973 +/- 0.166 m^2/kg              Find_Orb
# M 133.309105921 +/- 0.06            (J2000 equator)
# n 303.998914876 +/- 0.00564         Peri.  105.670305 +/- 0.035
# a 47281.23558 +/- 0.585             Node   249.934570 +/- 0.018
# e   0.69786920 +/- 8.03e-5          Incl.    9.015267 +/- 0.0009
# P1705.24m/1.184d           H 32.41  G  0.15   U  9.3
# q 14285.11733 +/- 3.87    Q 80277.35382 +/- 3.5
# From 10 observations 2023 Feb. 13-Mar. 19; mean residual 0".973
# Score: 0.269621
#
# 1 NoradU COSPAR   Epoch.epoch     dn/dt/2  d2n/dt2/6 BSTAR    T El# C
# 2 NoradU Inclina RAAscNode Eccent  ArgPeri MeanAno  MeanMotion Rev# C

# Worst residual: 88.78 km
# MJD 59884.000000 (2022 Nov  1  0:00)
A10TKof = A10SMu1
1 79971U 23999ZZV 22305.49919926  .00000000  00000-0  00000-0 0 19043
2 79971 017.1416 301.1527 1911152 334.8559 164.5582 00.83960227    09

# Worst residual: 70.88 km
# MJD 59885.000000 (2022 Nov  2  0:00)
A10TKof = A10SMu1
1 79971U 23999ZZV 22306.49919926  .00000000  00000-0  00000-0 0 19044
2 79971 017.1456 301.1408 1987855 336.2471 106.4827 00.83968594    05

# Worst residual: 131.30 km
# MJD 59886.000000 (2022 Nov  3  0:00)
A10TKof = A10SMu1
1 79971U 23999ZZV 22307.49919926  .00000000  00000-0  00000-0 0 19045
2 79971 017.1343 301.1484 2058630 337.0310 049.0105 00.84217691    03

# Worst residual: 91.19 km
# MJD 59887.000000 (2022 Nov  4  0:00)
A10TKof = A10SMu1
1 79971U 23999ZZV 22308.49919926  .00000000  00000-0  00000-0 0 19046
2 79971 017.1428 301.1160 2118900 338.2631 350.9523 00.84471318    00

# Worst residual: 82.15 km
# MJD 59888.000000 (2022 Nov  5  0:00)
A10TKof = A10SMu1
1 79971U 23999ZZV 22309.49919926  .00000000  00000-0  00000-0 0 19047
2 79971 017.1415 301.1015 2196028 339.4943 292.7637 00.84512459    02

# Worst residual: 118.81 km
# MJD 59889.000000 (2022 Nov  6  0:00)
A10TKof = A10SMu1
1 79971U 23999ZZV 22310.49919926  .00000000  00000-0  00000-0 0 19049
2 79971 017.1395 301.0892 2264472 340.1908 235.2115 00.84312109    03

# Worst residual: 83.73 km
# MJD 59890.000000 (2022 Nov  7  0:00)
A10TKof = A10SMu1
1 79971U 23999ZZV 22311.49919926  .00000000  00000-0  00000-0 0 19040
2 79971 017.1389 301.0653 2316876 341.2096 177.5545 00.84070915    08

# Worst residual: 46.41 km
# MJD 59891.000000 (2022 Nov  8  0:00)
A10TKof = A10SMu1
1 79971U 23999ZZV 22312.49919926  .00000000  00000-0  00000-0 0 19041
2 79971 017.1346 301.0596 2389726 342.4338 119.8699 00.84021472    06

# Worst residual: 133.12 km
# MJD 59892.000000 (2022 Nov  9  0:00)
A10TKof = A10SMu1
1 79971U 23999ZZV 22313.49919926  .00000000  00000-0  00000-0 0 19042
2 79971 017.1317 301.0583 2465517 343.1460 062.7690 00.84219477    08

# Worst residual: 119.09 km
# MJD 59893.000000 (2022 Nov 10  0:00)
A10TKof = A10SMu1
1 79971U 23999ZZV 22314.49919926  .00000000  00000-0  00000-0 0 19043
2 79971 017.1264 301.0566 2526154 344.0317 005.3669 00.84493331    08

# Worst residual: 73.38 km
# MJD 59894.000000 (2022 Nov 11  0:00)
A10TKof = A10SMu1
1 79971U 23999ZZV 22315.49919926  .00000000  00000-0  00000-0 0 19044
2 79971 017.1217 301.0411 2598628 345.1234 307.6196 00.84614580    04

# Worst residual: 110.38 km
# MJD 59895.000000 (2022 Nov 12  0:00)
A10TKof = A10SMu1
1 79971U 23999ZZV 22316.49919926  .00000000  00000-0  00000-0 0 19045
2 79971 017.1154 301.0351 2670948 345.7613 250.3826 00.84466804    08

# Worst residual: 88.04 km
# MJD 59896.000000 (2022 Nov 13  0:00)
A10TKof = A10SMu1
1 79971U 23999ZZV 22317.49919926  .00000000  00000-0  00000-0 0 19046
2 79971 017.1087 301.0313 2723225 346.5203 193.2271 00.84213636    04

# Worst residual: 55.15 km
# MJD 59897.000000 (2022 Nov 14  0:00)
A10TKof = A10SMu1
1 79971U 23999ZZV 22318.49919926  .00000000  00000-0  00000-0 0 19047
2 79971 017.1013 301.0216 2787851 347.5881 135.9787 00.84106183    06

# Worst residual: 114.12 km
# MJD 59898.000000 (2022 Nov 15  0:00)
A10TKof = A10SMu1
1 79971U 23999ZZV 22319.49919926  .00000000  00000-0  00000-0 0 19048
2 79971 017.0919 301.0091 2865911 348.3256 079.1915 00.84243404    00

# Worst residual: 139.64 km
# MJD 59899.000000 (2022 Nov 16  0:00)
A10TKof = A10SMu1
1 79971U 23999ZZV 22320.49919926  .00000000  00000-0  00000-0 0 19040
2 79971 017.0802 300.9980 2927823 348.9924 022.4071 00.84524748    02

# Worst residual: 65.78 km
# MJD 59900.000000 (2022 Nov 17  0:00)
A10TKof = A10SMu1
1 79971U 23999ZZV 22321.49919926  .00000000  00000-0  00000-0 0 19041
2 79971 017.0674 300.9917 2993668 349.9517 325.1513 00.84707116    04

# Worst residual: 101.71 km
# MJD 59901.000000 (2022 Nov 18  0:00)
A10TKof = A10SMu1
1 79971U 23999ZZV 22322.49919926  .00000000  00000-0  00000-0 0 19042
2 79971 017.0601 300.9969 3069150 350.6170 268.1843 00.84624891    06

# Worst residual: 106.59 km
# MJD 59902.000000 (2022 Nov 19  0:00)
A10TKof = A10SMu1
1 79971U 23999ZZV 22323.49919926  .00000000  00000-0  00000-0 0 19043
2 79971 017.0428 300.9804 3123489 351.1942 211.5126 00.84386125    01

# Worst residual: 71.31 km
# MJD 59903.000000 (2022 Nov 20  0:00)
A10TKof = A10SMu1
1 79971U 23999ZZV 22324.49919926  .00000000  00000-0  00000-0 0 19044
2 79971 017.0346 300.9671 3179185 352.1089 154.6995 00.84219955    06

# Worst residual: 76.89 km
# MJD 59904.000000 (2022 Nov 21  0:00)
A10TKof = A10SMu1
1 79971U 23999ZZV 22325.49919926  .00000000  00000-0  00000-0 0 19045
2 79971 017.0221 300.9551 3255027 352.8878 098.1931 00.84279256    00

# Worst residual: 134.72 km
# MJD 59905.000000 (2022 Nov 22  0:00)
A10TKof = A10SMu1
1 79971U 23999ZZV 22326.49919926  .00000000  00000-0  00000-0 0 19046
2 79971 016.9965 300.9354 3321701 353.4507 041.9088 00.84532028    01

# Worst residual: 101.23 km
# MJD 59906.000000 (2022 Nov 23  0:00)
A10TKof = A10SMu1
1 79971U 23999ZZV 22327.49919926  .00000000  00000-0  00000-0 0 19047
2 79971 016.9750 300.9277 3382450 354.2559 345.1889 00.84769308    02

# Worst residual: 110.27 km
# MJD 59907.000000 (2022 Nov 24  0:00)
A10TKof = A10SMu1
1 79971U 23999ZZV 22328.49919926  .00000000  00000-0  00000-0 0 19048
2 79971 016.9540 300.9279 3457274 355.0138 288.4289 00.84775190    09

# Worst residual: 116.00 km
# MJD 59908.000000 (2022 Nov 25  0:00)
A10TKof = A10SMu1
1 79971U 23999ZZV 22329.49919926  .00000000  00000-0  00000-0 0 19049
2 79971 016.9326 300.9246 3518586 355.4983 232.0818 00.84557691    08

# Worst residual: 73.65 km
# MJD 59909.000000 (2022 Nov 26  0:00)
A10TKof = A10SMu1
1 79971U 23999ZZV 22330.49919926  .00000000  00000-0  00000-0 0 19041
2 79971 016.9119 300.9180 3566780 356.2401 175.6625 00.84337045    05

# Worst residual: 58.17 km
# MJD 59910.000000 (2022 Nov 27  0:00)
A10TKof = A10SMu1
1 79971U 23999ZZV 22331.49919926  .00000000  00000-0  00000-0 0 19042
2 79971 016.8883 300.9004 3635676 357.0814 119.3211 00.84305877    09

# Worst residual: 131.65 km
# MJD 59911.000000 (2022 Nov 28  0:00)
A10TKof = A10SMu1
1 79971U 23999ZZV 22332.49919926  .00000000  00000-0  00000-0 0 19043
2 79971 016.8667 300.8892 3707501 357.6297 063.3057 00.84497975    08

# Worst residual: 137.71 km
# MJD 59912.000000 (2022 Nov 29  0:00)
A10TKof = A10SMu1
1 79971U 23999ZZV 22333.49919926  .00000000  00000-0  00000-0 0 19044
2 79971 016.8286 300.8727 3765818 358.2960 007.0047 00.84762818    06

# Worst residual: 97.15 km
# MJD 59913.000000 (2022 Nov 30  0:00)
A10TKof = A10SMu1
1 79971U 23999ZZV 22334.49919926  .00000000  00000-0  00000-0 0 19045
2 79971 016.7963 300.8605 3834507 359.1097 310.3421 00.84846785    07

# Worst residual: 98.00 km
# MJD 59914.000000 (2022 Dec  1  0:00)
A10TKof = A10SMu1
1 79971U 23999ZZV 22335.49919926  .00000000  00000-0  00000-0 0 19046
2 79971 016.7714 300.8763 3903158 359.5948 254.0210 00.84675062    02
